      2.10          N: GNSS NAV DATA                        RINEX VERSION / TYPE
fic2rin                                 10/30/2019 00:19:32 PGM / RUN BY / DATE
                                                            END OF HEADER
10 19 10 29  2  0  0.0-1.128851436079e-04-1.512034941697e-11 0.000000000000e+00
    1.000000000000e+02 1.496875000000e+01 4.967349767199e-09 1.564317652178e+00
    8.009374141693e-07 4.981960519217e-03 4.276633262634e-06 5.153655475616e+03
    1.800000000000e+05-3.539025783539e-08 1.587226587958e+00 1.173466444016e-07
    9.634876646486e-01 2.979062500000e+02-2.743840085233e+00-8.419636425938e-09
    1.439345668810e-10 1.000000000000e+00 2.077000000000e+03 0.000000000000e+00
    2.400000000000e+00 0.000000000000e+00 1.862645149231e-09 1.000000000000e+02
    1.728000000000e+05 4.000000000000e+00
25 19 10 29  2  0  0.0-1.635774970055e-05-6.821210263297e-13 0.000000000000e+00
    1.060000000000e+02 3.956250000000e+01 4.876274544979e-09 1.863634617668e+00
    1.890584826469e-06 8.517128764652e-03 9.536743164062e-07 5.153638166428e+03
    1.800000000000e+05-2.384185791016e-07-1.549274458254e+00-5.215406417847e-08
    9.679800300593e-01 3.643125000000e+02 8.890071463732e-01-8.560356573212e-09
    1.185763677531e-10 1.000000000000e+00 2.077000000000e+03 0.000000000000e+00
    3.400000000000e+00 0.000000000000e+00 5.587935447693e-09 1.060000000000e+02
    1.728000000000e+05 4.000000000000e+00
24 19 10 29  2  0  0.0-4.141591489315e-06-5.684341886081e-13 0.000000000000e+00
    6.800000000000e+01 1.154687500000e+02 4.788056584633e-09-2.469529839087e+00
    5.766749382019e-06 8.943871362135e-03 1.177750527859e-05 5.153681243896e+03
    1.800000000000e+05 6.146728992462e-08-2.654739653751e+00-1.639127731323e-07
    9.380469794334e-01 1.398750000000e+02 6.142375337102e-01-8.080336578452e-09
    2.989410235221e-10 1.000000000000e+00 2.077000000000e+03 0.000000000000e+00
    2.400000000000e+00 0.000000000000e+00 2.793967723846e-09 6.800000000000e+01
    1.728000000000e+05 4.000000000000e+00
14 19 10 29  2  0  0.0-5.356455221772e-05 2.046363078989e-12 0.000000000000e+00
    8.200000000000e+01-2.243750000000e+01 4.490187034313e-09-8.507274839402e-01
   -1.024454832077e-06 1.075022574514e-02 1.096166670322e-05 5.153763605118e+03
    1.800000000000e+05-1.154839992523e-07 2.716403059582e+00 2.402812242508e-07
    9.607719664317e-01 1.717187500000e+02-1.932813478400e+00-8.094980045554e-09
   -5.346651280915e-10 1.000000000000e+00 2.077000000000e+03 0.000000000000e+00
    2.400000000000e+00 0.000000000000e+00-9.778887033463e-09 8.200000000000e+01
    1.728000000000e+05 4.000000000000e+00
23 19 10 29  2  0  0.0-1.587509177625e-04 2.160049916711e-12 0.000000000000e+00
    9.000000000000e+01-3.175000000000e+01 4.861631077877e-09-1.975525109670e+00
   -1.890584826469e-06 1.323446724564e-02 9.849667549133e-06 5.153733949661e+03
    1.800000000000e+05 2.011656761169e-07 2.615733762211e+00-1.303851604462e-08
    9.435938308248e-01 1.739375000000e+02-2.222481669682e+00-7.986761252093e-09
   -4.475186409477e-10 1.000000000000e+00 2.077000000000e+03 0.000000000000e+00
    3.400000000000e+00 0.000000000000e+00-2.048909664154e-08 9.000000000000e+01
    1.728000000000e+05 4.000000000000e+00
19 19 10 29  2  0  0.0-2.473061904311e-04 5.229594535194e-12 0.000000000000e+00
    7.000000000000e+01-1.531250000000e+02 3.928020760689e-09 2.108726771974e+00
   -8.054077625275e-06 9.272302500904e-03 9.525567293167e-06 5.153657823563e+03
    1.800000000000e+05 1.676380634308e-07-4.031366042806e-01-1.098960638046e-07
    9.824839850644e-01 2.043750000000e+02 1.521500260707e+00-7.747465570181e-09
   -5.143071372424e-10 1.000000000000e+00 2.077000000000e+03 0.000000000000e+00
    2.400000000000e+00 0.000000000000e+00-1.536682248116e-08 7.000000000000e+01
    1.728000000000e+05 4.000000000000e+00
11 19 10 29  2  0  0.0-4.643127322197e-04 1.125499693444e-11 0.000000000000e+00
    8.200000000000e+01-6.637500000000e+01 5.062710882229e-09 2.745086307109e+00
   -3.246590495110e-06 1.647979824338e-02 1.347810029984e-05 5.153747230530e+03
    1.800000000000e+05 1.881271600723e-07 8.798145860947e-02 1.043081283569e-07
    9.113426782463e-01 8.856250000000e+01 1.963755497773e+00-7.999618930524e-09
   -2.857261873569e-12 1.000000000000e+00 2.077000000000e+03 0.000000000000e+00
    2.400000000000e+00 0.000000000000e+00-1.210719347000e-08 8.200000000000e+01
    1.728000000000e+05 4.000000000000e+00
21 19 10 29  2  0  0.0-9.484682232141e-05 6.139089236967e-12 0.000000000000e+00
    7.400000000000e+01-1.162500000000e+01 4.410898017322e-09 1.692476223320e+00
   -8.847564458847e-07 2.452359755989e-02 1.196563243866e-05 5.153634429932e+03
    1.800000000000e+05 4.414469003677e-07 4.801296638763e-01-4.768371582031e-07
    9.506378106349e-01 1.391250000000e+02-1.402045999472e+00-7.736750838156e-09
    4.500187450871e-10 1.000000000000e+00 2.077000000000e+03 0.000000000000e+00
    2.400000000000e+00 0.000000000000e+00-1.024454832077e-08 7.400000000000e+01
    1.728000000000e+05 4.000000000000e+00
17 19 10 29  2  0  0.0 1.528235152364e-04 7.048583938740e-12 0.000000000000e+00
    7.600000000000e+01-1.340312500000e+02 4.020167456111e-09-6.289798141625e-01
   -6.958842277527e-06 1.327967597172e-02 9.369105100632e-06 5.153593404770e+03
    1.800000000000e+05-9.126961231232e-08-4.490808149099e-01 1.117587089539e-07
    9.844719415165e-01 2.141875000000e+02-1.696937690438e+00-8.145339286076e-09
   -4.464471677451e-10 1.000000000000e+00 2.077000000000e+03 0.000000000000e+00
    2.400000000000e+00 0.000000000000e+00-1.117587089539e-08 7.600000000000e+01
    1.728000000000e+05 4.000000000000e+00
20 19 10 29  2  0  0.0 5.273260176182e-04 1.136868377216e-13 0.000000000000e+00
    7.400000000000e+01 3.262500000000e+01 5.609162215549e-09 3.137551471133e+00
    1.786276698112e-06 5.016151699238e-03 4.075467586517e-06 5.153615064621e+03
    1.800000000000e+05-8.754432201385e-08 1.463419209170e+00 1.043081283569e-07
    9.315045054959e-01 2.821875000000e+02 2.466945838608e+00-8.654646215040e-09
    3.678724662220e-10 1.000000000000e+00 2.077000000000e+03 0.000000000000e+00
    2.400000000000e+00 0.000000000000e+00-8.381903171539e-09 7.400000000000e+01
    1.728000000000e+05 4.000000000000e+00
31 19 10 29  2  0  0.0 5.126930773258e-07-2.614797267597e-12 0.000000000000e+00
    1.750000000000e+02 1.214062500000e+02 4.395183077017e-09 2.571053925345e+00
    6.373971700668e-06 9.495899430476e-03 1.049973070621e-05 5.153733390808e+03
    1.800000000000e+05-2.291053533554e-07-2.571502407751e+00 5.774199962616e-08
    9.592800416128e-01 1.773437500000e+02 4.963538701024e-02-7.926758752748e-09
    2.832260832175e-10 1.000000000000e+00 2.077000000000e+03 0.000000000000e+00
    3.400000000000e+00 0.000000000000e+00-1.350417733192e-08 1.750000000000e+02
    1.728000000000e+05 4.000000000000e+00
29 19 10 29  2  0  0.0 5.879951640964e-05-1.011812855722e-11 0.000000000000e+00
    1.100000000000e+02-1.340625000000e+02 3.848731743697e-09-3.874920764175e-01
   -7.050111889839e-06 1.117739826441e-03 8.663162589073e-06 5.153677038193e+03
    1.800000000000e+05-5.215406417847e-08-4.376941730220e-01-3.539025783539e-08
    9.860261325177e-01 2.259375000000e+02 2.056540895549e+00-7.791395971488e-09
   -4.121600252623e-10 1.000000000000e+00 2.077000000000e+03 0.000000000000e+00
    2.400000000000e+00 0.000000000000e+00-9.778887033463e-09 1.100000000000e+02
    1.728000000000e+05 4.000000000000e+00
26 19 10 29  2  0  0.0 7.202988490462e-05 8.526512829121e-12 0.000000000000e+00
    1.020000000000e+02 3.562500000000e+01 5.307721087888e-09 1.342914347464e+00
    2.054497599602e-06 4.098005592823e-03 4.619359970093e-07 5.153691364288e+03
    1.800000000000e+05 1.173466444016e-07-1.580707903995e+00 4.097819328308e-08
    9.491923276133e-01 3.614375000000e+02 1.190851026354e-01-8.870369486494e-09
    2.857261873569e-12 1.000000000000e+00 2.077000000000e+03 0.000000000000e+00
    2.400000000000e+00 0.000000000000e+00 7.450580596924e-09 1.020000000000e+02
    1.728000000000e+05 4.000000000000e+00
28 19 10 29  2  0  0.0 7.573002949357e-04-1.591615728103e-12 0.000000000000e+00
    8.400000000000e+01 5.781250000000e+00 4.775198906202e-09 2.229522818746e-01
    3.203749656677e-07 1.913650054485e-02 1.247972249985e-06 5.153701213837e+03
    1.800000000000e+05-2.440065145493e-07-1.460188737876e+00-1.322478055954e-07
    9.798775287922e-01 3.696875000000e+02-1.446962431153e+00-8.899656420698e-09
   -5.785955293977e-11 1.000000000000e+00 2.077000000000e+03 0.000000000000e+00
    3.400000000000e+00 0.000000000000e+00-1.117587089539e-08 8.400000000000e+01
    1.728000000000e+05 4.000000000000e+00
18 19 10 29  2  0  0.0 9.636953473091e-05 2.614797267597e-12 0.000000000000e+00
    5.200000000000e+01 1.056250000000e+01 4.190174537588e-09-3.025013536939e+00
    6.165355443954e-07 1.563707925379e-02 1.280382275581e-05 5.153672153473e+03
    1.800000000000e+05 1.136213541031e-07 4.901155851100e-01-9.313225746155e-09
    9.562739761009e-01 1.260937500000e+02 1.443280912958e+00-7.543528503955e-09
    5.103784021662e-10 1.000000000000e+00 2.077000000000e+03 0.000000000000e+00
    2.400000000000e+00 6.300000000000e+01-5.587935447693e-09 5.200000000000e+01
    1.728000000000e+05 4.000000000000e+00
 4 19 10 29  2  0  0.0-3.717374056578e-06-3.183231456205e-12 0.000000000000e+00
    9.100000000000e+01-2.581250000000e+01 4.511616498365e-09 1.639604589415e+00
   -1.534819602966e-06 3.104228526354e-04 1.110322773457e-05 5.153638288498e+03
    1.800000000000e+05 6.146728992462e-08 2.668657771508e+00-5.587935447693e-09
    9.601660696508e-01 1.675937500000e+02-4.355431860534e-01-7.950331163205e-09
   -6.246688771090e-10 1.000000000000e+00 2.077000000000e+03 0.000000000000e+00
    4.850000000000e+00 6.300000000000e+01-4.190951585770e-09 9.100000000000e+01
    1.728600000000e+05 4.000000000000e+00
